{
  "type": "FeatureCollection",
  "features": [
    {
      "type": "Feature",
      "properties": {
        "norad_id": 63772,
        "name": "BIOMASS",
        "group": "resource",
        "lat": 72.71261904092385,
        "lon": 135.31284586533684,
        "alt_km": 661.072192687523,
        "timestamp": "2025-12-03T06:58:42.899360+00:00",
        "meta_object_name": "BIOMASS",
        "meta_object_id": "2025-090A",
        "meta_epoch": "2025-12-02T11:00:11.877120",
        "meta_mean_motion": 14.67543778,
        "meta_eccentricity": 0.00012102,
        "meta_inclination": 98.0707,
        "meta_ra_of_asc_node": 161.6172,
        "meta_arg_of_pericenter": 82.8919,
        "meta_mean_anomaly": 277.2423,
        "meta_ephemeris_type": 0,
        "meta_classification_type": "U",
        "meta_norad_cat_id": 63772,
        "meta_element_set_no": 999,
        "meta_rev_at_epoch": 3183,
        "meta_bstar": 0.0003434806,
        "meta_mean_motion_dot": 1.9e-05,
        "meta_mean_motion_ddot": 0,
        "tle_line1": "1 63772U 25090A   25336.45847080  .00001900  00000+0  34348-3 0  9990",
        "tle_line2": "2 63772  98.0707 161.6172 0001210  82.8919 277.2423 14.67543778 31837"
      },
      "geometry": {
        "type": "Point",
        "coordinates": [
          135.31284586533684,
          72.71261904092385
        ]
      }
    },
    {
      "type": "Feature",
      "properties": {
        "norad_id": 64694,
        "name": "GOSAT-GW (IBUKI GW)",
        "group": "resource",
        "lat": -74.45768669164796,
        "lon": -56.47960229024096,
        "alt_km": 677.014054027899,
        "timestamp": "2025-12-03T06:58:42.899371+00:00",
        "meta_object_name": "GOSAT-GW (IBUKI GW)",
        "meta_object_id": "2025-141A",
        "meta_epoch": "2025-11-30T05:41:32.267328",
        "meta_mean_motion": 14.67567435,
        "meta_eccentricity": 0.00014369,
        "meta_inclination": 98.0401,
        "meta_ra_of_asc_node": 269.9775,
        "meta_arg_of_pericenter": 82.921,
        "meta_mean_anomaly": 277.2158,
        "meta_ephemeris_type": 0,
        "meta_classification_type": "U",
        "meta_norad_cat_id": 64694,
        "meta_element_set_no": 999,
        "meta_rev_at_epoch": 2266,
        "meta_bstar": 0.00019762357,
        "meta_mean_motion_dot": 1.074e-05,
        "meta_mean_motion_ddot": 0,
        "tle_line1": "1 64694U 25141A   25334.23717902  .00001074  00000+0  19762-3 0  9999",
        "tle_line2": "2 64694  98.0401 269.9775 0001436  82.9210 277.2158 14.67567435 22660"
      },
      "geometry": {
        "type": "Point",
        "coordinates": [
          -56.47960229024096,
          -74.45768669164796
        ]
      }
    },
    {
      "type": "Feature",
      "properties": {
        "norad_id": 64876,
        "name": "IONOSFERA-M 3",
        "group": "resource",
        "lat": 51.256899360672314,
        "lon": -71.41638492776293,
        "alt_km": 814.1273947298687,
        "timestamp": "2025-12-03T06:58:42.899381+00:00",
        "meta_object_name": "IONOSFERA-M 3",
        "meta_object_id": "2025-155A",
        "meta_epoch": "2025-12-02T20:35:53.524896",
        "meta_mean_motion": 14.21437049,
        "meta_eccentricity": 0.000239,
        "meta_inclination": 98.5769,
        "meta_ra_of_asc_node": 299.0047,
        "meta_arg_of_pericenter": 75.2757,
        "meta_mean_anomaly": 284.8685,
        "meta_ephemeris_type": 0,
        "meta_classification_type": "U",
        "meta_norad_cat_id": 64876,
        "meta_element_set_no": 999,
        "meta_rev_at_epoch": 1851,
        "meta_bstar": 7.7913e-05,
        "meta_mean_motion_dot": 1.28e-06,
        "meta_mean_motion_ddot": 0,
        "tle_line1": "1 64876U 25155A   25336.85825839  .00000128  00000+0  77913-4 0  9997",
        "tle_line2": "2 64876  98.5769 299.0047 0002390  75.2757 284.8685 14.21437049 18516"
      },
      "geometry": {
        "type": "Point",
        "coordinates": [
          -71.41638492776293,
          51.256899360672314
        ]
      }
    },
    {
      "type": "Feature",
      "properties": {
        "norad_id": 64877,
        "name": "IONOSFERA-M 4",
        "group": "resource",
        "lat": -52.01367938984959,
        "lon": 108.20142271751413,
        "alt_km": 828.6017993606511,
        "timestamp": "2025-12-03T06:58:42.899392+00:00",
        "meta_object_name": "IONOSFERA-M 4",
        "meta_object_id": "2025-155B",
        "meta_epoch": "2025-12-02T21:26:23.866656",
        "meta_mean_motion": 14.21438057,
        "meta_eccentricity": 0.000175,
        "meta_inclination": 98.5768,
        "meta_ra_of_asc_node": 298.9585,
        "meta_arg_of_pericenter": 73.5825,
        "meta_mean_anomaly": 286.5545,
        "meta_ephemeris_type": 0,
        "meta_classification_type": "U",
        "meta_norad_cat_id": 64877,
        "meta_element_set_no": 999,
        "meta_rev_at_epoch": 1851,
        "meta_bstar": 7.3318e-05,
        "meta_mean_motion_dot": 1.18e-06,
        "meta_mean_motion_ddot": 0,
        "tle_line1": "1 64877U 25155B   25336.89333179  .00000118  00000+0  73318-4 0  9997",
        "tle_line2": "2 64877  98.5768 298.9585 0001750  73.5825 286.5545 14.21438057 18511"
      },
      "geometry": {
        "type": "Point",
        "coordinates": [
          108.20142271751413,
          -52.01367938984959
        ]
      }
    },
    {
      "type": "Feature",
      "properties": {
        "norad_id": 64899,
        "name": "MICROCARB",
        "group": "resource",
        "lat": 69.78640218103195,
        "lon": -104.7473435998307,
        "alt_km": 642.9971280930595,
        "timestamp": "2025-12-03T06:58:42.899402+00:00",
        "meta_object_name": "MICROCARB",
        "meta_object_id": "2025-156A",
        "meta_epoch": "2025-12-02T19:03:59.958144",
        "meta_mean_motion": 14.72029972,
        "meta_eccentricity": 0.001649,
        "meta_inclination": 98.0035,
        "meta_ra_of_asc_node": 52.299,
        "meta_arg_of_pericenter": 175.6581,
        "meta_mean_anomaly": 184.4772,
        "meta_ephemeris_type": 0,
        "meta_classification_type": "U",
        "meta_norad_cat_id": 64899,
        "meta_element_set_no": 999,
        "meta_rev_at_epoch": 1907,
        "meta_bstar": 0.00017428,
        "meta_mean_motion_dot": 1.047e-05,
        "meta_mean_motion_ddot": 0,
        "tle_line1": "1 64899U 25156A   25336.79444396  .00001047  00000+0  17428-3 0  9996",
        "tle_line2": "2 64899  98.0035  52.2990 0016490 175.6581 184.4772 14.72029972 19076"
      },
      "geometry": {
        "type": "Point",
        "coordinates": [
          -104.7473435998307,
          69.78640218103195
        ]
      }
    },
    {
      "type": "Feature",
      "properties": {
        "norad_id": 64900,
        "name": "CO3D 3",
        "group": "resource",
        "lat": -18.891198541064895,
        "lon": -129.83744866029426,
        "alt_km": 477.10003863070597,
        "timestamp": "2025-12-03T06:58:42.899412+00:00",
        "meta_object_name": "CO3D 3",
        "meta_object_id": "2025-156B",
        "meta_epoch": "2025-11-29T13:08:11.122944",
        "meta_mean_motion": 15.11495615,
        "meta_eccentricity": 0.01368669,
        "meta_inclination": 97.6723,
        "meta_ra_of_asc_node": 49.0485,
        "meta_arg_of_pericenter": 160.1625,
        "meta_mean_anomaly": 200.5002,
        "meta_ephemeris_type": 0,
        "meta_classification_type": "U",
        "meta_norad_cat_id": 64900,
        "meta_element_set_no": 999,
        "meta_rev_at_epoch": 1920,
        "meta_bstar": 0.00046350794,
        "meta_mean_motion_dot": 9.779e-05,
        "meta_mean_motion_ddot": 0,
        "tle_line1": "1 64900U 25156B   25333.54735096  .00009779  00000+0  46351-3 0  9996",
        "tle_line2": "2 64900  97.6723  49.0485 0136866 160.1625 200.5002 15.11495615 19205"
      },
      "geometry": {
        "type": "Point",
        "coordinates": [
          -129.83744866029426,
          -18.891198541064895
        ]
      }
    },
    {
      "type": "Feature",
      "properties": {
        "norad_id": 64901,
        "name": "CO3D 4",
        "group": "resource",
        "lat": -45.39203655971856,
        "lon": 61.402019384150975,
        "alt_km": 511.89816083373535,
        "timestamp": "2025-12-03T06:58:42.899422+00:00",
        "meta_object_name": "CO3D 4",
        "meta_object_id": "2025-156C",
        "meta_epoch": "2025-12-01T18:50:45.474720",
        "meta_mean_motion": 15.20204195,
        "meta_eccentricity": 0.00012108,
        "meta_inclination": 97.4354,
        "meta_ra_of_asc_node": 52.3098,
        "meta_arg_of_pericenter": 238.3057,
        "meta_mean_anomaly": 121.806,
        "meta_ephemeris_type": 0,
        "meta_classification_type": "U",
        "meta_norad_cat_id": 64901,
        "meta_element_set_no": 999,
        "meta_rev_at_epoch": 1954,
        "meta_bstar": -1.4420799e-05,
        "meta_mean_motion_dot": -3.8e-06,
        "meta_mean_motion_ddot": 0,
        "tle_line1": "1 64901U 25156C   25335.78524855 -.00000380  00000+0 -14421-4 0  9999",
        "tle_line2": "2 64901  97.4354  52.3098 0001210 238.3057 121.8060 15.20204195 19549"
      },
      "geometry": {
        "type": "Point",
        "coordinates": [
          61.402019384150975,
          -45.39203655971856
        ]
      }
    }
  ]
}